#dP2019 10 27  0  0  0.00000000      96 __u+U ITR00 FIT  IAC
## 2077      0.00000000   900.00000000 58783 0.0000000000000
+  116   C01C02C03C04C05C06C07C08C09C10C11C12C13C14C16C19C20
+        C21C22C23C24C25C26C27C28C29C30C32C33C34C35C36C37E01
+        E02E03E04E05E07E08E09E11E12E13E14E15E18E19E21E24E25
+        E26E27E30E31E33E36G01G02G03G04G05G06G07G08G09G10G11
+        G12G13G14G15G16G17G18G19G20G21G22G23G24G25G26G27G28
+        G29G30G31G32J01J02J03J07R01R02R03R05R06R07R08R09R11
+        R12R13R14R15R16R17R18R19R20R21R22R23R24R26  0  0  0
++        13 15 13 13 13  8  8  8  8  8  8  7  8  8  8  8  8
++         8  8  8  8  8  8  8  8  7  7  8  8  8  8  8  9  5
++         5  5  5  5  5  5  5  5  5  5  5  5  5  5  4  5  5
++         5  5  5  5  5  5  4  3  3  4  3  3  3  3  3  3  4
++         3  3  3  3  3  3  4  3  3  3  3  3  4  3  3  3  3
++         3  3  3  3  8  8  9 14  6  5  5  5  8  5  5  5  5
++         5  6  5  5  6  5  6  6  6  5  5  5  6  8  0  0  0
%c M  cc GPS ccc cccc cccc cccc cccc ccccc ccccc ccccc ccccc
%c cc cc ccc ccc cccc cccc cccc cccc ccccc ccccc ccccc ccccc
%f  0.0000000  0.000000000  0.00000000000  0.000000000000000
%f  0.0000000  0.000000000  0.00000000000  0.000000000000000
%i    0    0    0    0      0      0      0      0         0
%i    0    0    0    0      0      0      0      0         0
/* INFORMATION & ANALYSIS CENTER (IAC)            RAPID DATA
/* S/V CLOCKS ARE ALIGNED TO GNSS TIME                      
/* G:C1WC2W R:C1PC2P E:C1XC5X C:C2IC6I J:C1CC2S             
/* PCV:IGS14_2076 OL/AL:FES2004  NONE     YN ORB:CoN CLK:CoN
*  2019 10 27  7 45  0.00000000
PC01 -32341.385461  27053.190220   -962.769761     64.337241
PC02   4428.527900  41912.011739    474.756855    232.145127
PC03 -14746.117847  39525.850518   -384.110525    403.473543
PC04 -39617.987159  14452.443252   -551.919233   -405.827927
PC05  21938.814925  36016.861926    735.427476      3.638723
PC06 -10254.161278  22876.135529  34272.056390    343.812376
PC07 -25193.648336  29779.146883 -16406.752526   -222.168780
PC08 -11617.510739  36694.942594 -16742.322546    -22.518001
PC09   6471.292539  30302.787099  28978.369352     70.832561
PC10 -10904.343654  30844.711624 -26628.178243   -308.244571
PC11 -15570.293773 -23149.946430   1638.088356     33.122117
PC12   6557.571123 -15682.085858  22219.704567    303.893171
PC13  -2529.072846  41873.925206  -2267.495159     74.513220
PC14 -13742.635379 -12809.097878 -20630.608561     98.912017
PC16  -6095.013453  24298.726973  33969.317441   -901.338752
PC19  21898.095770   7932.252806  15377.426106    229.144832
PC20   3830.696833  15563.250531  22850.746681   -218.784164
PC21  17040.629347 -14136.587827 -16965.403647    224.513216
PC22  27513.451194  -4405.265581  -1220.909707   -278.846131
PC23 -18480.572540   8436.037183  19145.574700   -893.290672
PC24   1577.897460 -25091.731087  12138.916776   -878.712820
PC25 -12452.820297 -11227.332263  22311.411930   -393.725980
PC26  13209.965342 -24199.983295  -4420.591320    438.127764
PC27  -7228.079037  15792.731052 -21857.401074    214.241279
PC28 -18942.223173  -2085.099953 -20386.914021    205.460525
PC29  20237.164118  17869.662106   7049.648314    137.743995
PC30   9409.931570  24006.465093 -10686.729444    214.573306
PC32 -16955.294980  14277.410618  16963.510604   -884.774655
PC33 -21916.192177  -7872.009509 -15391.847387   -507.196977
PC34  -9550.545362 -24061.755895  10397.222894   -186.085013
PC35  19087.401757   1514.195428  20313.227561   -488.128578
PC36  12071.750390  11669.978820 -22258.191046   -931.436613
PC37 -14046.439540  23591.402555   4983.206558   -664.655371
PE01  -4845.195284 -17029.963411  23729.285160   -719.151990
PE02   4911.253859  16974.582709 -23736.699757     87.802174
PE03  16328.340388  17691.610206  17205.053554   -226.349082
PE04 -28260.751593  -8803.126549   -365.569354   -393.610163
PE05  -5288.215773  16303.341625  24129.697935   -436.519028
PE07  23679.847293  -5396.917037 -16912.038110   -290.131657
PE08  28350.298652   8480.029945    204.951348   6271.813894
PE09 -23596.094658   5502.269652  17015.810902   6272.229847
PE11 -13738.020028  10613.002908 -23980.342885   5535.577255
PE12 -17192.632033 -12060.126977 -20854.576791   6129.765201
PE13  13684.133006 -10481.201744  24070.178860    394.667119
PE14  13998.523059  -7126.565421  17376.466307   -771.906675
PE15  17216.562203  11660.587520  21070.093756    890.020296
PE18 -16072.986190  13400.891352 -25000.097764   -866.507537
PE19 -14375.572414 -17954.042153 -18634.192162     -3.208538
PE21  13359.234817 -23543.584809  11978.527498   -562.539229
PE24 -23873.990912  16125.897601   6755.833512   5798.758021
PE25 -13450.333530  23536.756634 -11876.659323   1634.816469
PE26   2282.263942 -26623.652871  12754.252127   3946.974887
PE27  23795.427355 -16217.407144  -6845.163055    358.406104
PE30  20266.137785    741.913748 -21563.533884   4433.990419
PE31 -20234.156065   -620.457732  21612.337905   -470.050920
PE33 -10652.866143 -27025.134690  -5693.287420   -471.516436
PE36  -2118.754138  26522.477029 -12957.870181    644.515196
PG01  13402.254879 -13677.315420  18061.461341   -176.755114
PG02 -13834.825712  -9876.960886 -19819.764069   -334.386424
PG03  22422.927973 -13620.031475  -3882.835343    -27.881303
PG04  -3736.735052 -18768.433345 -18419.039111     -3.241222
PG05 -22707.065518    294.033369 -14076.372723     -2.758016
PG06  -6752.052298 -22373.826889 -12552.089312   -104.098025
PG07   6033.587431 -25009.884190  -5206.907495   -135.833709
PG08  21727.430911   1899.430959  15338.869554    -11.318426
PG09   4844.152322 -15049.005498 -21391.257202    -67.590758
PG10   1963.996293  15583.742085  21451.185530   -110.582366
PG11  12548.053240 -10945.746500  20227.097125   -466.017106
PG12 -24718.986179   9447.337080    376.472234    189.829939
PG13 -22184.559424 -11435.043023   9069.312949    -36.464325
PG14  18601.255033  18742.140972   4000.576503    -53.882712
PG15 -21838.369244    805.760322  15062.941061   -276.977977
PG16  21488.369386   3265.610657 -15752.007676    -87.227267
PG17 -11567.459693 -20166.589249  13335.086654    151.755588
PG18  14897.099239  -4973.615164  20903.418027     95.960050
PG19 -16789.614665 -19568.640824   6026.755594   -248.103009
PG20  -7723.768086  19328.208610  16287.172444    527.311413
PG21  -1199.258030  26576.513473  -1021.587160    -95.773148
PG22  24153.508627 -10094.466398   4382.807957   -767.222172
PG23  15426.516553  -7284.220828 -20103.578112   -159.090479
PG24 -14180.595368  11592.693338  18943.458646     -4.049343
PG25 -16177.852123  17032.687928 -12350.676832    -16.252070
PG26  13941.867623   9445.633030 -20596.698547     70.737662
PG27  23344.621915  11960.847376   5003.978493   -100.672687
PG28  -1286.622763 -15406.025393  22219.108675    757.535186
PG29  -7118.706573  13000.294114 -22070.031491     60.326131
PG30  -1091.886741 -25825.380925   5677.493083    -70.521753
PG31   7895.795599  20671.681395 -14360.505939      0.900814
PG32  12852.459285  19564.951696  12730.046308    105.149368
PJ01 -30331.360612  25185.043537  19982.121938   -336.084028
PJ02 -32447.245473  26329.107946  10124.328410     -6.548162
PJ03 -23703.895798  17962.497461 -25309.628889     -4.854915
PJ07 -25420.487909  33634.648239     46.133602     -0.400716
PR01  -9753.507079   9914.109472  21380.380036     51.778880
PR02  12914.986458  10131.960104  19576.685457    394.842271
PR03  24637.390523   4075.974569   5355.653292      3.804829
PR05   7152.318149 -10066.151366 -22320.130650     38.261482
PR06 -13916.489245  -9799.217890 -19005.434738    164.564191
PR07 -24747.959740  -3806.726736  -4730.553632    -28.584512
PR08 -22190.489134   4279.072879  11862.019917     14.817596
PR09  -3668.688507 -13395.906467  21398.286987     97.885305
PR11 -16759.228493  16220.894702  10406.166211     21.967877
PR12 -11078.606049  22099.801484  -6210.905383     73.861450
PR13   1543.157184  15346.818120 -20327.002660    -30.191903
PR14  12810.258978   -230.183686 -22035.241602     44.411978
PR15  16762.152633 -15637.026863 -11162.011593    104.522076
PR16  10519.702030 -22380.357015   6485.060386      1.629644
PR17  14708.888048  13248.261158  16067.942471    271.521282
PR18  10059.885982  -3297.332492  23223.787839     12.358442
PR19    526.496867 -18043.359012  18030.208998    -60.918896
PR20 -10413.903669 -23257.772636    626.981686   -394.483797
PR21 -14619.614999 -12698.898717 -16623.111021    -81.352007
PR22  -8476.536205   6382.512096 -23196.258588   -181.970423
PR23   3538.297695  21281.346818 -13610.411073    262.912073
PR24  11715.433885  22609.664171   1512.498715   -186.138292
PR26  -9267.933969 -23402.865188   4254.480780      3.514318
EOF
